{"spkid": "50672692", "covariance": {"epoch": "2457089.5", "labels": ["e", "q", "tp", "node", "peri", "i"], "data": [["1.464220596404726E-15", "-2.26397012393963E-15", "2.927270877466756E-13", "-3.133839097294152E-13", "4.3477535215198E-13", "7.777650817105687E-14"], ["-2.26397012393963E-15", "3.639920368282259E-15", "-5.436365271716441E-13", "4.667048769675256E-13", "-6.918694770273643E-13", "-1.222456395919801E-13"], ["2.927270877466756E-13", "-5.436365271716441E-13", "3.307232166929098E-10", "-1.253964519597429E-10", "3.114936418212382E-10", "3.749477028244546E-11"], ["-3.133839097294152E-13", "4.667048769675256E-13", "-1.253964519597429E-10", "7.672526455297032E-10", "-8.040589257485616E-10", "-1.855139180329193E-10"], ["4.3477535215198E-13", "-6.918694770273643E-13", "3.114936418212382E-10", "-8.040589257485616E-10", "9.676009707076473E-10", "1.958033920899019E-10"], ["7.777650817105687E-14", "-1.222456395919801E-13", "3.749477028244546E-11", "-1.855139180329193E-10", "1.958033920899019E-10", "8.181591299366648E-11"]], "elements": [{"sigma": 3.82651355205326e-08, "name": "e", "units": null, "title": "eccentricity", "value": ".4064524839973518", "label": "e"}, {"sigma": 6.03317525709494e-08, "name": "q", "units": "au", "value": ".9077072326889425", "title": "perihelion distance", "label": "q"}, {"label": "tp", "units": "TDB", "title": "time of perihelion passage", "value": "2456932.945051486013", "sigma": 1.81857971145867e-05, "name": "tp"}, {"name": "om", "sigma": 2.76993257233764e-05, "title": "longitude of the ascending node", "value": "121.6867903478195", "units": "deg", "label": "node"}, {"units": "deg", "value": "231.378351063916", "title": "argument of perihelion", "sigma": 3.11062850676137e-05, "name": "w", "label": "peri"}, {"sigma": 9.04521492246959e-06, "name": "i", "title": "inclination", "value": "13.76560218505344", "units": "deg", "label": "i"}]}, "elements": [{"label": "e", "units": null, "value": ".4063029423861559", "title": "eccentricity", "sigma": "3.8201E-8", "name": "e"}, {"label": "a", "units": "au", "value": "1.528787493121212", "title": "semi-major axis", "name": "a", "sigma": "1.891E-8"}, {"title": "perihelion distance", "value": ".9076366363829083", "units": "au", "sigma": "6.0378E-8", "name": "q", "label": "q"}, {"units": "deg", "value": "13.76222035670101", "title": "inclination; angle with respect to x-y ecliptic plane", "sigma": "9.0429E-6", "name": "i", "label": "i"}, {"label": "node", "units": "deg", "value": "121.6095005313014", "title": "longitude of the ascending node", "sigma": "2.7721E-5", "name": "om"}, {"name": "w", "sigma": "3.1124E-5", "value": "231.5059907558976", "title": "argument of perihelion", "units": "deg", "label": "peri"}, {"sigma": "3.9227E-5", "name": "ma", "units": "deg", "title": "mean anomaly", "value": "64.8209488421945", "label": "M"}, {"name": "tp", "sigma": "7.2984E-5", "value": "2461076.182579080697", "title": "time of perihelion passage", "units": "TDB", "label": "tp"}, {"name": "per", "sigma": "1.281E-5", "value": "690.4291333331543", "title": "sidereal orbital period", "units": "d", "label": "period"}, {"name": "n", "sigma": "9.6744E-9", "units": "deg/d", "title": "mean motion", "value": ".521414845665686", "label": "n"}, {"value": "2.149938349859515", "title": "aphelion distance", "units": "au", "name": "ad", "sigma": "2.6593E-8", "label": "Q"}], "epoch": "2461200.5"}